[
    {
        "Altitude(m)": 557354.361465878,
        "Argument of Periapsis(deg)": 0.013245982221427002,
        "Eccentricity": 0.0,
        "Inclination(deg)": 53.0,
        "Latitude(deg)": 41.925606477549515,
        "Longitude(deg)": -19.275362714961997,
        "Mean Anomaly(deg)": 56.54688573515518,
        "RAAN(deg)": 39.98028673705603,
        "Satellite Name": "Starlink Shell 1 178",
        "Satellite Number": 178,
        "Semi-Major Axis(m)": 6931778.249405717,
        "Time(s)": 380
    },
    {
        "Altitude(m)": 557435.2486780923,
        "Argument of Periapsis(deg)": 0.013594560700938237,
        "Eccentricity": 0.0,
        "Inclination(deg)": 53.0,
        "Latitude(deg)": 42.294710375162886,
        "Longitude(deg)": -18.634360935036348,
        "Mean Anomaly(deg)": 57.17371693871189,
        "RAAN(deg)": 39.97976796697856,
        "Satellite Name": "Starlink Shell 1 178",
        "Satellite Number": 178,
        "Semi-Major Axis(m)": 6931778.249405717,
        "Time(s)": 390
    },
    {
        "Altitude(m)": 557515.5839970271,
        "Argument of Periapsis(deg)": 0.013943139180449475,
        "Eccentricity": 0.0,
        "Inclination(deg)": 53.0,
        "Latitude(deg)": 42.65968438951348,
        "Longitude(deg)": -17.98539754860061,
        "Mean Anomaly(deg)": 57.800548142268596,
        "RAAN(deg)": 39.97924919690109,
        "Satellite Name": "Starlink Shell 1 178",
        "Satellite Number": 178,
        "Semi-Major Axis(m)": 6931778.249405717,
        "Time(s)": 400
    },
    {
        "Altitude(m)": 557595.3163616994,
        "Argument of Periapsis(deg)": 0.014291717659960712,
        "Eccentricity": 0.0,
        "Inclination(deg)": 53.0,
        "Latitude(deg)": 43.02042807242101,
        "Longitude(deg)": -17.328368101740818,
        "Mean Anomaly(deg)": 58.427379345825315,
        "RAAN(deg)": 39.97873042682362,
        "Satellite Name": "Starlink Shell 1 178",
        "Satellite Number": 178,
        "Semi-Major Axis(m)": 6931778.249405717,
        "Time(s)": 410
    },
    {
        "Altitude(m)": 557674.3952269363,
        "Argument of Periapsis(deg)": 0.014640296139471948,
        "Eccentricity": 0.0,
        "Inclination(deg)": 53.0,
        "Latitude(deg)": 43.37683914222196,
        "Longitude(deg)": -16.663171893007586,
        "Mean Anomaly(deg)": 59.054210549382034,
        "RAAN(deg)": 39.97821165674614,
        "Satellite Name": "Starlink Shell 1 178",
        "Satellite Number": 178,
        "Semi-Major Axis(m)": 6931778.249405717,
        "Time(s)": 420
    },
    {
        "Altitude(m)": 557752.7705887533,
        "Argument of Periapsis(deg)": 0.014988874618983185,
        "Eccentricity": 0.0,
        "Inclination(deg)": 53.0,
        "Latitude(deg)": 43.72881350344687,
        "Longitude(deg)": -15.989711843134184,
        "Mean Anomaly(deg)": 59.68104175293876,
        "RAAN(deg)": 39.97769288666867,
        "Satellite Name": "Starlink Shell 1 178",
        "Satellite Number": 178,
        "Semi-Major Axis(m)": 6931778.249405717,
        "Time(s)": 430
    },
    {
        "Altitude(m)": 557830.393009479,
        "Argument of Periapsis(deg)": 0.015337453098494424,
        "Eccentricity": 0.0,
        "Inclination(deg)": 53.0,
        "Latitude(deg)": 44.07624527237223,
        "Longitude(deg)": -15.307894383447811,
        "Mean Anomaly(deg)": 60.30787295649546,
        "RAAN(deg)": 39.9771741165912,
        "Satellite Name": "Starlink Shell 1 178",
        "Satellite Number": 178,
        "Semi-Major Axis(m)": 6931778.249405717,
        "Time(s)": 440
    },
    {
        "Altitude(m)": 557907.213642513,
        "Argument of Periapsis(deg)": 0.01568603157800566,
        "Eccentricity": 0.0,
        "Inclination(deg)": 53.0,
        "Latitude(deg)": 44.41902680885844,
        "Longitude(deg)": -14.61763087573583,
        "Mean Anomaly(deg)": 60.93470416005218,
        "RAAN(deg)": 39.97665534651372,
        "Satellite Name": "Starlink Shell 1 178",
        "Satellite Number": 178,
        "Semi-Major Axis(m)": 6931778.249405717,
        "Time(s)": 450
    },
    {
        "Altitude(m)": 557983.1842568276,
        "Argument of Periapsis(deg)": 0.0160346100575169,
        "Eccentricity": 0.0,
        "Inclination(deg)": 53.0,
        "Latitude(deg)": 44.757048754899465,
        "Longitude(deg)": -13.918837537575481,
        "Mean Anomaly(deg)": 61.5615353636089,
        "RAAN(deg)": 39.976136576436254,
        "Satellite Name": "Starlink Shell 1 178",
        "Satellite Number": 178,
        "Semi-Major Axis(m)": 6931778.249405717,
        "Time(s)": 460
    },
    {
        "Altitude(m)": 558058.2572610665,
        "Argument of Periapsis(deg)": 0.016383188537028134,
        "Eccentricity": 0.0,
        "Inclination(deg)": 53.0,
        "Latitude(deg)": 45.090200080308044,
        "Longitude(deg)": -13.211435385593637,
        "Mean Anomaly(deg)": 62.1883665671656,
        "RAAN(deg)": 39.97561780635878,
        "Satellite Name": "Starlink Shell 1 178",
        "Satellite Number": 178,
        "Semi-Major Axis(m)": 6931778.249405717,
        "Time(s)": 470
    },
    {
        "Altitude(m)": 558132.3857273217,
        "Argument of Periapsis(deg)": 0.01673176701653937,
        "Eccentricity": 0.0,
        "Inclination(deg)": 53.0,
        "Latitude(deg)": 45.41836813596163,
        "Longitude(deg)": -12.49535170895598,
        "Mean Anomaly(deg)": 62.81519777072232,
        "RAAN(deg)": 39.97509903628131,
        "Satellite Name": "Starlink Shell 1 178",
        "Satellite Number": 178,
        "Semi-Major Axis(m)": 6931778.249405717,
        "Time(s)": 480
    },
    {
        "Altitude(m)": 558205.5234145934,
        "Argument of Periapsis(deg)": 0.017080345496050607,
        "Eccentricity": 0.0,
        "Inclination(deg)": 53.0,
        "Latitude(deg)": 45.741438715041035,
        "Longitude(deg)": -11.770520046576745,
        "Mean Anomaly(deg)": 63.44202897427904,
        "RAAN(deg)": 39.97458026620384,
        "Satellite Name": "Starlink Shell 1 178",
        "Satellite Number": 178,
        "Semi-Major Axis(m)": 6931778.249405717,
        "Time(s)": 490
    },
    {
        "Altitude(m)": 558277.6247918045,
        "Argument of Periapsis(deg)": 0.017428923975561842,
        "Eccentricity": 0.0,
        "Inclination(deg)": 53.0,
        "Latitude(deg)": 46.05929612268147,
        "Longitude(deg)": -11.036880179957354,
        "Mean Anomaly(deg)": 64.06886017783576,
        "RAAN(deg)": 39.97406149612636,
        "Satellite Name": "Starlink Shell 1 178",
        "Satellite Number": 178,
        "Semi-Major Axis(m)": 6931778.249405717,
        "Time(s)": 500
    },
    {
        "Altitude(m)": 558348.64506051,
        "Argument of Periapsis(deg)": 0.01777750245507308,
        "Eccentricity": 0.0,
        "Inclination(deg)": 53.0,
        "Latitude(deg)": 46.37182325444655,
        "Longitude(deg)": -10.294379653337682,
        "Mean Anomaly(deg)": 64.69569138139246,
        "RAAN(deg)": 39.97354272604889,
        "Satellite Name": "Starlink Shell 1 178",
        "Satellite Number": 178,
        "Semi-Major Axis(m)": 6931778.249405717,
        "Time(s)": 510
    },
    {
        "Altitude(m)": 558418.5401771676,
        "Argument of Periapsis(deg)": 0.018126080934584315,
        "Eccentricity": 0.0,
        "Inclination(deg)": 53.0,
        "Latitude(deg)": 46.67890168402988,
        "Longitude(deg)": -9.542973793995705,
        "Mean Anomaly(deg)": 65.32252258494917,
        "RAAN(deg)": 39.97302395597142,
        "Satellite Name": "Starlink Shell 1 178",
        "Satellite Number": 178,
        "Semi-Major Axis(m)": 6931778.249405717,
        "Time(s)": 520
    },
    {
        "Altitude(m)": 558487.2668750519,
        "Argument of Periapsis(deg)": 0.018474659414095554,
        "Eccentricity": 0.0,
        "Inclination(deg)": 53.0,
        "Latitude(deg)": 46.980411760563314,
        "Longitude(deg)": -8.782625743893934,
        "Mean Anomaly(deg)": 65.94935378850589,
        "RAAN(deg)": 39.97250518589394,
        "Satellite Name": "Starlink Shell 1 178",
        "Satellite Number": 178,
        "Semi-Major Axis(m)": 6931778.249405717,
        "Time(s)": 530
    },
    {
        "Altitude(m)": 558554.782685715,
        "Argument of Periapsis(deg)": 0.018823237893606792,
        "Eccentricity": 0.0,
        "Inclination(deg)": 53.0,
        "Latitude(deg)": 47.27623271588602,
        "Longitude(deg)": -8.013308013609404,
        "Mean Anomaly(deg)": 66.57618499206262,
        "RAAN(deg)": 39.97198641581647,
        "Satellite Name": "Starlink Shell 1 178",
        "Satellite Number": 178,
        "Semi-Major Axis(m)": 6931778.249405717,
        "Time(s)": 540
    },
    {
        "Altitude(m)": 558621.0459600792,
        "Argument of Periapsis(deg)": 0.019171816373118027,
        "Eccentricity": 0.0,
        "Inclination(deg)": 53.0,
        "Latitude(deg)": 47.56624278210734,
        "Longitude(deg)": -7.235002530590896,
        "Mean Anomaly(deg)": 67.20301619561931,
        "RAAN(deg)": 39.971467645739,
        "Satellite Name": "Starlink Shell 1 178",
        "Satellite Number": 178,
        "Semi-Major Axis(m)": 6931778.249405717,
        "Time(s)": 550
    },
    {
        "Altitude(m)": 558686.0158890674,
        "Argument of Periapsis(deg)": 0.019520394852629266,
        "Eccentricity": 0.0,
        "Inclination(deg)": 53.0,
        "Latitude(deg)": 47.85031931975253,
        "Longitude(deg)": -6.4477006921168325,
        "Mean Anomaly(deg)": 67.82984739917606,
        "RAAN(deg)": 39.97094887566152,
        "Satellite Name": "Starlink Shell 1 178",
        "Satellite Number": 178,
        "Semi-Major Axis(m)": 6931778.249405717,
        "Time(s)": 560
    }
]